[{"OBJECT_NAME":"STARLINK-2410","OBJECT_ID":"2021-018AQ","EPOCH":"2026-03-09T17:06:27.061344","MEAN_MOTION":15.30207751,"ECCENTRICITY":0.00013278,"INCLINATION":53.1592,"RA_OF_ASC_NODE":242.7377,"ARG_OF_PERICENTER":100.9479,"MEAN_ANOMALY":259.1672,"EPHEMERIS_TYPE":0,"CLASSIFICATION_TYPE":"U","NORAD_CAT_ID":47825,"ELEMENT_SET_NO":999,"REV_AT_EPOCH":27673,"BSTAR":7.5672564e-5,"MEAN_MOTION_DOT":1.883e-5,"MEAN_MOTION_DDOT":0},{"OBJECT_NAME":"CZ-2F DEB","OBJECT_ID":"2026-024F","EPOCH":"2026-03-09T08:22:27.145056","MEAN_MOTION":15.03733997,"ECCENTRICITY":0.03102592,"INCLINATION":49.7935,"RA_OF_ASC_NODE":23.5997,"ARG_OF_PERICENTER":270.0739,"MEAN_ANOMALY":86.4659,"EPHEMERIS_TYPE":0,"CLASSIFICATION_TYPE":"U","NORAD_CAT_ID":67719,"ELEMENT_SET_NO":999,"REV_AT_EPOCH":419,"BSTAR":0.0038997444,"MEAN_MOTION_DOT":0.00165167,"MEAN_MOTION_DDOT":0}]
